FENGYUN 1C DEB          
1 31319U 99025BPX 17345.49294076 -.00000011  00000-0  28541-4 0  9990
2 31319  98.8403  72.0050 0170550 328.3603  94.1423 13.74886956535102
